*******************************************************************************
 Revised: Jun 17, 2016            Enceladus / (Saturn)                      602
                           http://ssd.jpl.nasa.gov/?sat_phys_par
                             http://ssd.jpl.nasa.gov/?sat_elem

 SATELLITE PHYSICAL PROPERTIES:
  Mean Radius (km)        = 252.3   +- 0.6   Density (g/cm^3) =  1.606 +- 0.012
  Mass (10^19 kg)         =  10.805          Geometric Albedo =  1.04
  GM (km^3/s^2)           =   7.206 +- 0.011 V(1,0)           =  +2.2

 SATELLITE ORBITAL DATA (mean elements referred to local Laplace plane):
  Semi-major axis, a (km) = 238.04(10^3)    Orbital period    = 1.370218 d
  Eccentricity, e         = 0.0047          Rotational period = Synchronous
  Inclination, i  (deg)   = 0.009
*******************************************************************************
 
 
*******************************************************************************
Ephemeris / WWW_USER Tue Aug 22 12:00:01 2017 Pasadena, USA      / Horizons    
*******************************************************************************
Target body name: Enceladus (602)                 {source: sat389}
Center body name: Earth (399)                     {source: sat389}
Center-site name: (user defined site below)
*******************************************************************************
Start time      : A.D. 2017-Oct-31 17:00:00.0000 UT      
Stop  time      : A.D. 2017-Nov-01 17:00:00.0000 UT      
Step-size       : 4 minutes
*******************************************************************************
Target pole/equ : IAU_ENCELADUS                   {East-longitude -}
Target radii    : 256.6 x 251.4 x 248.3 km        {Equator, meridian, pole}    
Center geodetic : 289.239440,-30.237778,2.7430000 {E-lon(deg),Lat(deg),Alt(km)}
Center cylindric: 289.239440,5517.39973,-3194.555 {E-lon(deg),Dxy(km),Dz(km)}
Center pole/equ : High-precision EOP model        {East-longitude +}
Center radii    : 6378.1 x 6378.1 x 6356.8 km     {Equator, meridian, pole}    
Target primary  : Saturn
Vis. interferer : MOON (R_eq= 1737.400) km        {source: sat389}
Rel. light bend : Sun, EARTH                      {source: sat389}
Rel. lght bnd GM: 1.3271E+11, 3.9860E+05 km^3/s^2                              
Atmos refraction: NO (AIRLESS)
RA format       : HMS
Time format     : CAL 
RTS-only print  : NO       
EOP file        : eop.170821.p171112                                           
EOP coverage    : DATA-BASED 1962-JAN-20 TO 2017-AUG-21. PREDICTS-> 2017-NOV-11
Units conversion: 1 au= 149597870.700 km, c= 299792.458 km/s, 1 day= 86400.0 s 
Table cut-offs 1: Elevation (-90.0deg=NO ),Airmass (>38.000=NO), Daylight (NO )
Table cut-offs 2: Solar elongation (  0.0,180.0=NO ),Local Hour Angle( 0.0=NO )
Table cut-offs 3: RA/DEC angular rate (     0.0=NO )                           
********************************************************************************************************
 Date__(UT)__HR:MN:SC.fff     R.A.___(ICRF/J2000.0)___DEC dRA*cosD d(DEC)/dt a-mass mag_ex  APmag  S-brt
********************************************************************************************************
$$SOE
 2017-Nov-01 05:48:00.000  m  17 35 43.0917 -22 19 33.135 18.67818  0.528580   n.a.   n.a.  12.37   6.19
 2017-Nov-01 05:52:00.000  m  17 35 43.1815 -22 19 33.103 18.72707  0.498400   n.a.   n.a.  12.37   6.19
 2017-Nov-01 05:56:00.000  m  17 35 43.2716 -22 19 33.073 18.77519  0.467987   n.a.   n.a.  12.37   6.19
 2017-Nov-01 06:00:00.000  m  17 35 43.3619 -22 19 33.046 18.82252  0.437345   n.a.   n.a.  12.37   6.19
 2017-Nov-01 06:04:00.000  m  17 35 43.4525 -22 19 33.020 18.86908  0.406481   n.a.   n.a.  12.37   6.19
 2017-Nov-01 06:08:00.000  m  17 35 43.5432 -22 19 32.996 18.91483  0.375398   n.a.   n.a.  12.37   6.19
 2017-Nov-01 06:12:00.000  m  17 35 43.6342 -22 19 32.974 18.95979  0.344102   n.a.   n.a.  12.37   6.19
 2017-Nov-01 06:16:00.000  m  17 35 43.7254 -22 19 32.955 19.00394  0.312598   n.a.   n.a.  12.37   6.19
 2017-Nov-01 06:20:00.000  m  17 35 43.8168 -22 19 32.937 19.04726  0.280891   n.a.   n.a.  12.37   6.19
 2017-Nov-01 06:24:00.000  m  17 35 43.9084 -22 19 32.922 19.08977  0.248987   n.a.   n.a.  12.37   6.19
 2017-Nov-01 06:28:00.000  m  17 35 44.0002 -22 19 32.909 19.13144  0.216890   n.a.   n.a.  12.37   6.19
 2017-Nov-01 06:32:00.000  m  17 35 44.0923 -22 19 32.898 19.17228  0.184605   n.a.   n.a.  12.37   6.19
 2017-Nov-01 06:36:00.000  m  17 35 44.1845 -22 19 32.889 19.21226  0.152139   n.a.   n.a.  12.37   6.19
 2017-Nov-01 06:40:00.000  m  17 35 44.2769 -22 19 32.882 19.25140  0.119497   n.a.   n.a.  12.37   6.19
 2017-Nov-01 06:44:00.000  m  17 35 44.3694 -22 19 32.877 19.28968  0.086683   n.a.   n.a.  12.37   6.19
 2017-Nov-01 06:48:00.000  m  17 35 44.4622 -22 19 32.875 19.32709  0.053703   n.a.   n.a.  12.37   6.19
 2017-Nov-01 06:52:00.000  m  17 35 44.5551 -22 19 32.875 19.36363  0.020563   n.a.   n.a.  12.37   6.19
 2017-Nov-01 06:56:00.000  m  17 35 44.6482 -22 19 32.877 19.39930  -0.01273   n.a.   n.a.  12.37   6.19
 2017-Nov-01 07:00:00.000  m  17 35 44.7415 -22 19 32.881 19.43408  -0.04618   n.a.   n.a.  12.37   6.19
 2017-Nov-01 07:04:00.000  m  17 35 44.8350 -22 19 32.888 19.46797  -0.07977   n.a.   n.a.  12.37   6.19
 2017-Nov-01 07:08:00.000  m  17 35 44.9286 -22 19 32.897 19.50096  -0.11349   n.a.   n.a.  12.37   6.19
 2017-Nov-01 07:12:00.000  m  17 35 45.0223 -22 19 32.908 19.53305  -0.14735   n.a.   n.a.  12.37   6.19
 2017-Nov-01 07:16:00.000  m  17 35 45.1163 -22 19 32.921 19.56424  -0.18134   n.a.   n.a.  12.37   6.19
 2017-Nov-01 07:20:00.000  m  17 35 45.2103 -22 19 32.937 19.59452  -0.21545   n.a.   n.a.  12.37   6.19
 2017-Nov-01 07:24:00.000  m  17 35 45.3045 -22 19 32.954 19.62387  -0.24967   n.a.   n.a.  12.37   6.19
 2017-Nov-01 07:28:00.000  m  17 35 45.3989 -22 19 32.975 19.65231  -0.28401   n.a.   n.a.  12.37   6.19
 2017-Nov-01 07:32:00.000  m  17 35 45.4933 -22 19 32.997 19.67982  -0.31845   n.a.   n.a.  12.37   6.19
 2017-Nov-01 07:36:00.000  m  17 35 45.5880 -22 19 33.022 19.70640  -0.35299   n.a.   n.a.  12.37   6.19
 2017-Nov-01 07:40:00.000  m  17 35 45.6827 -22 19 33.049 19.73204  -0.38762   n.a.   n.a.  12.37   6.19
 2017-Nov-01 07:44:00.000  m  17 35 45.7775 -22 19 33.078 19.75674  -0.42234   n.a.   n.a.  12.37   6.19
 2017-Nov-01 07:48:00.000  m  17 35 45.8725 -22 19 33.110 19.78050  -0.45714   n.a.   n.a.  12.37   6.19
 2017-Nov-01 07:52:00.000  m  17 35 45.9676 -22 19 33.144 19.80331  -0.49202   n.a.   n.a.  12.37   6.19
 2017-Nov-01 07:56:00.000  m  17 35 46.0628 -22 19 33.180 19.82517  -0.52697   n.a.   n.a.  12.37   6.19
 2017-Nov-01 08:00:00.000  m  17 35 46.1581 -22 19 33.219 19.84607  -0.56198   n.a.   n.a.  12.37   6.19
 2017-Nov-01 08:04:00.000  m  17 35 46.2535 -22 19 33.260 19.86601  -0.59706   n.a.   n.a.  12.37   6.19
 2017-Nov-01 08:08:00.000  m  17 35 46.3489 -22 19 33.303 19.88499  -0.63218   n.a.   n.a.  12.37   6.19
 2017-Nov-01 08:12:00.000  m  17 35 46.4445 -22 19 33.349 19.90300  -0.66735   n.a.   n.a.  12.37   6.19
 2017-Nov-01 08:16:00.000     17 35 46.5402 -22 19 33.397 19.92004  -0.70257   n.a.   n.a.  12.37   6.19
 2017-Nov-01 08:20:00.000     17 35 46.6359 -22 19 33.448 19.93611  -0.73781   n.a.   n.a.  12.37   6.19
 2017-Nov-01 08:24:00.000 A   17 35 46.7317 -22 19 33.500 19.95120  -0.77309   n.a.   n.a.  12.37   6.19
 2017-Nov-01 08:28:00.000 A   17 35 46.8276 -22 19 33.555 19.96531  -0.80839   n.a.   n.a.  12.37   6.19
 2017-Nov-01 08:32:00.000 A   17 35 46.9235 -22 19 33.613 19.97845  -0.84371   n.a.   n.a.  12.37   6.19
 2017-Nov-01 08:36:00.000 A   17 35 47.0195 -22 19 33.673 19.99060  -0.87904   n.a.   n.a.  12.37   6.19
 2017-Nov-01 08:40:00.000 A   17 35 47.1156 -22 19 33.735 20.00177  -0.91438   n.a.   n.a.  12.37   6.19
 2017-Nov-01 08:44:00.000 A   17 35 47.2117 -22 19 33.799 20.01195  -0.94971   n.a.   n.a.  12.37   6.19
 2017-Nov-01 08:48:00.000 A   17 35 47.3079 -22 19 33.866 20.02114  -0.98504   n.a.   n.a.  12.37   6.19
 2017-Nov-01 08:52:00.000 A   17 35 47.4040 -22 19 33.936 20.02934  -1.02036   n.a.   n.a.  12.37   6.19
 2017-Nov-01 08:56:00.000 N   17 35 47.5003 -22 19 34.007 20.03655  -1.05566   n.a.   n.a.  12.37   6.19
 2017-Nov-01 09:00:00.000 N   17 35 47.5966 -22 19 34.081 20.04277  -1.09094   n.a.   n.a.  12.37   6.19
 2017-Nov-01 09:04:00.000 N   17 35 47.6928 -22 19 34.158 20.04799  -1.12619   n.a.   n.a.  12.37   6.19
 2017-Nov-01 09:08:00.000 N   17 35 47.7892 -22 19 34.236 20.05222  -1.16140   n.a.   n.a.  12.37   6.19
 2017-Nov-01 09:12:00.000 N   17 35 47.8855 -22 19 34.317 20.05545  -1.19657   n.a.   n.a.  12.37   6.19
 2017-Nov-01 09:16:00.000 N   17 35 47.9818 -22 19 34.401 20.05768  -1.23170   n.a.   n.a.  12.37   6.19
 2017-Nov-01 09:20:00.000 N   17 35 48.0782 -22 19 34.486 20.05892  -1.26677   n.a.   n.a.  12.37   6.19
 2017-Nov-01 09:24:00.000 C   17 35 48.1746 -22 19 34.574 20.05916  -1.30178   n.a.   n.a.  12.37   6.19
 2017-Nov-01 09:28:00.000 C   17 35 48.2709 -22 19 34.665 20.05841  -1.33673   n.a.   n.a.  12.37   6.19
 2017-Nov-01 09:32:00.000 C   17 35 48.3673 -22 19 34.757 20.05665  -1.37160   n.a.   n.a.  12.37   6.19
 2017-Nov-01 09:36:00.000 C   17 35 48.4636 -22 19 34.852 20.05390  -1.40640   n.a.   n.a.  12.37   6.19
 2017-Nov-01 09:40:00.000 C   17 35 48.5599 -22 19 34.950 20.05015  -1.44112   n.a.   n.a.  12.37   6.19
 2017-Nov-01 09:44:00.000 C   17 35 48.6562 -22 19 35.049 20.04541  -1.47575   n.a.   n.a.  12.37   6.19
 2017-Nov-01 09:48:00.000 *   17 35 48.7525 -22 19 35.151 20.03967  -1.51028   n.a.   n.a.  12.37   6.19
 2017-Nov-01 09:52:00.000 *   17 35 48.8488 -22 19 35.256 20.03294  -1.54472   n.a.   n.a.  12.37   6.19
 2017-Nov-01 09:56:00.000 *   17 35 48.9450 -22 19 35.362 20.02521  -1.57905   n.a.   n.a.  12.37   6.19
 2017-Nov-01 10:00:00.000 *   17 35 49.0411 -22 19 35.471 20.01650  -1.61326   n.a.   n.a.  12.37   6.19
